{
  "type": "FeatureCollection",
  "features": [
    {
      "type": "Feature",
      "properties": {
        "norad_id": 66906,
        "name": "1998-067XS",
        "group": "last-30-days",
        "lat": -31.963654900178785,
        "lon": 41.58131695150184,
        "alt_km": 415.2079753615535,
        "timestamp": "2025-12-27T02:10:14.908906+00:00",
        "meta_object_name": "1998-067XS",
        "meta_object_id": "1998-067XS",
        "meta_epoch": "2025-12-26T15:31:52.020768",
        "meta_mean_motion": 15.5132596,
        "meta_eccentricity": 0.0002673,
        "meta_inclination": 51.6319,
        "meta_ra_of_asc_node": 73.4106,
        "meta_arg_of_pericenter": 274.6448,
        "meta_mean_anomaly": 85.4236,
        "meta_ephemeris_type": 0,
        "meta_classification_type": "U",
        "meta_norad_cat_id": 66906,
        "meta_element_set_no": 999,
        "meta_rev_at_epoch": 377,
        "meta_bstar": 0.00048785,
        "meta_mean_motion_dot": 0.0002883,
        "meta_mean_motion_ddot": 0,
        "tle_line1": "1 66906U 98067XS  25360.64712987  .00028830  00000+0  48785-3 0  9992",
        "tle_line2": "2 66906  51.6319  73.4106 0002673 274.6448  85.4236 15.51325960  3770"
      },
      "geometry": {
        "type": "Point",
        "coordinates": [
          41.58131695150184,
          -31.963654900178785
        ]
      }
    },
    {
      "type": "Feature",
      "properties": {
        "norad_id": 66907,
        "name": "1998-067XT",
        "group": "last-30-days",
        "lat": 32.99327159742135,
        "lon": 101.98349932486981,
        "alt_km": 403.08654295522774,
        "timestamp": "2025-12-27T02:10:14.908919+00:00",
        "meta_object_name": "1998-067XT",
        "meta_object_id": "1998-067XT",
        "meta_epoch": "2025-12-26T12:05:04.890048",
        "meta_mean_motion": 15.53165234,
        "meta_eccentricity": 0.0003816,
        "meta_inclination": 51.6314,
        "meta_ra_of_asc_node": 73.9516,
        "meta_arg_of_pericenter": 309.8325,
        "meta_mean_anomaly": 50.2329,
        "meta_ephemeris_type": 0,
        "meta_classification_type": "U",
        "meta_norad_cat_id": 66907,
        "meta_element_set_no": 999,
        "meta_rev_at_epoch": 375,
        "meta_bstar": 0.00096732,
        "meta_mean_motion_dot": 0.00061851,
        "meta_mean_motion_ddot": 0,
        "tle_line1": "1 66907U 98067XT  25360.50352882  .00061851  00000+0  96732-3 0  9997",
        "tle_line2": "2 66907  51.6314  73.9516 0003816 309.8325  50.2329 15.53165234  3750"
      },
      "geometry": {
        "type": "Point",
        "coordinates": [
          101.98349932486981,
          32.99327159742135
        ]
      }
    },
    {
      "type": "Feature",
      "properties": {
        "norad_id": 66908,
        "name": "1998-067XU",
        "group": "last-30-days",
        "lat": 37.24171940876545,
        "lon": 108.04687632521137,
        "alt_km": 402.582842492724,
        "timestamp": "2025-12-27T02:10:14.908931+00:00",
        "meta_object_name": "1998-067XU",
        "meta_object_id": "1998-067XU",
        "meta_epoch": "2025-12-26T18:14:01.548960",
        "meta_mean_motion": 15.53257933,
        "meta_eccentricity": 0.000387,
        "meta_inclination": 51.6313,
        "meta_ra_of_asc_node": 72.6614,
        "meta_arg_of_pericenter": 309.5614,
        "meta_mean_anomaly": 50.5034,
        "meta_ephemeris_type": 0,
        "meta_classification_type": "U",
        "meta_norad_cat_id": 66908,
        "meta_element_set_no": 999,
        "meta_rev_at_epoch": 379,
        "meta_bstar": 0.00095802,
        "meta_mean_motion_dot": 0.00061456,
        "meta_mean_motion_ddot": 0,
        "tle_line1": "1 66908U 98067XU  25360.75974015  .00061456  00000+0  95802-3 0  9991",
        "tle_line2": "2 66908  51.6313  72.6614 0003870 309.5614  50.5034 15.53257933  3791"
      },
      "geometry": {
        "type": "Point",
        "coordinates": [
          108.04687632521137,
          37.24171940876545
        ]
      }
    },
    {
      "type": "Feature",
      "properties": {
        "norad_id": 66909,
        "name": "SILVERSAT",
        "group": "last-30-days",
        "lat": 43.52950846299092,
        "lon": 119.80883267819645,
        "alt_km": 401.00262856788686,
        "timestamp": "2025-12-27T02:10:14.908941+00:00",
        "meta_object_name": "SILVERSAT",
        "meta_object_id": "1998-067XV",
        "meta_epoch": "2025-12-26T12:00:46.911744",
        "meta_mean_motion": 15.53512588,
        "meta_eccentricity": 0.0003773,
        "meta_inclination": 51.6312,
        "meta_ra_of_asc_node": 73.9315,
        "meta_arg_of_pericenter": 313.4073,
        "meta_mean_anomaly": 46.6603,
        "meta_ephemeris_type": 0,
        "meta_classification_type": "U",
        "meta_norad_cat_id": 66909,
        "meta_element_set_no": 999,
        "meta_rev_at_epoch": 375,
        "meta_bstar": 0.0010737,
        "meta_mean_motion_dot": 0.00069652,
        "meta_mean_motion_ddot": 0,
        "tle_line1": "1 66909U 98067XV  25360.50054296  .00069652  00000+0  10737-2 0  9994",
        "tle_line2": "2 66909  51.6312  73.9315 0003773 313.4073  46.6603 15.53512588  3752"
      },
      "geometry": {
        "type": "Point",
        "coordinates": [
          119.80883267819645,
          43.52950846299092
        ]
      }
    },
    {
      "type": "Feature",
      "properties": {
        "norad_id": 66910,
        "name": "1998-067XW",
        "group": "last-30-days",
        "lat": 47.471910061580154,
        "lon": 130.71832551989306,
        "alt_km": 402.0285845444678,
        "timestamp": "2025-12-27T02:10:14.908951+00:00",
        "meta_object_name": "1998-067XW",
        "meta_object_id": "1998-067XW",
        "meta_epoch": "2025-12-26T15:03:47.086848",
        "meta_mean_motion": 15.53433211,
        "meta_eccentricity": 0.0003702,
        "meta_inclination": 51.6299,
        "meta_ra_of_asc_node": 73.2784,
        "meta_arg_of_pericenter": 284.4746,
        "meta_mean_anomaly": 75.5833,
        "meta_ephemeris_type": 0,
        "meta_classification_type": "U",
        "meta_norad_cat_id": 66910,
        "meta_element_set_no": 999,
        "meta_rev_at_epoch": 377,
        "meta_bstar": 0.0010495,
        "meta_mean_motion_dot": 0.00067854,
        "meta_mean_motion_ddot": 0,
        "tle_line1": "1 66910U 98067XW  25360.62762832  .00067854  00000+0  10495-2 0  9994",
        "tle_line2": "2 66910  51.6299  73.2784 0003702 284.4746  75.5833 15.53433211  3770"
      },
      "geometry": {
        "type": "Point",
        "coordinates": [
          130.71832551989306,
          47.471910061580154
        ]
      }
    },
    {
      "type": "Feature",
      "properties": {
        "norad_id": 66911,
        "name": "1998-067XX",
        "group": "last-30-days",
        "lat": 51.29157841299429,
        "lon": 169.55737429708708,
        "alt_km": 400.04643842456153,
        "timestamp": "2025-12-27T02:10:14.908963+00:00",
        "meta_object_name": "1998-067XX",
        "meta_object_id": "1998-067XX",
        "meta_epoch": "2025-12-26T11:52:19.081056",
        "meta_mean_motion": 15.5396914,
        "meta_eccentricity": 0.0003493,
        "meta_inclination": 51.6301,
        "meta_ra_of_asc_node": 73.8915,
        "meta_arg_of_pericenter": 292.742,
        "meta_mean_anomaly": 67.3201,
        "meta_ephemeris_type": 0,
        "meta_classification_type": "U",
        "meta_norad_cat_id": 66911,
        "meta_element_set_no": 999,
        "meta_rev_at_epoch": 374,
        "meta_bstar": 0.0011709,
        "meta_mean_motion_dot": 0.00077346,
        "meta_mean_motion_ddot": 0,
        "tle_line1": "1 66911U 98067XX  25360.49466529  .00077346  00000+0  11709-2 0  9990",
        "tle_line2": "2 66911  51.6301  73.8915 0003493 292.7420  67.3201 15.53969140  3745"
      },
      "geometry": {
        "type": "Point",
        "coordinates": [
          169.55737429708708,
          51.29157841299429
        ]
      }
    },
    {
      "type": "Feature",
      "properties": {
        "norad_id": 66912,
        "name": "1998-067XY",
        "group": "last-30-days",
        "lat": 9.95010592091737,
        "lon": 79.0820619816669,
        "alt_km": 407.7415651408619,
        "timestamp": "2025-12-27T02:10:14.908973+00:00",
        "meta_object_name": "1998-067XY",
        "meta_object_id": "1998-067XY",
        "meta_epoch": "2025-12-26T12:12:45.084960",
        "meta_mean_motion": 15.52489248,
        "meta_eccentricity": 0.0003823,
        "meta_inclination": 51.6314,
        "meta_ra_of_asc_node": 73.9869,
        "meta_arg_of_pericenter": 301.1826,
        "meta_mean_anomaly": 58.8789,
        "meta_ephemeris_type": 0,
        "meta_classification_type": "U",
        "meta_norad_cat_id": 66912,
        "meta_element_set_no": 999,
        "meta_rev_at_epoch": 374,
        "meta_bstar": 0.00078444,
        "meta_mean_motion_dot": 0.00048771,
        "meta_mean_motion_ddot": 0,
        "tle_line1": "1 66912U 98067XY  25360.50885515  .00048771  00000+0  78444-3 0  9993",
        "tle_line2": "2 66912  51.6314  73.9869 0003823 301.1826  58.8789 15.52489248  3742"
      },
      "geometry": {
        "type": "Point",
        "coordinates": [
          79.0820619816669,
          9.95010592091737
        ]
      }
    }
  ]
}